NORAD_CAT_ID,OBJECT_NAME,OBJECT_TYPE,EPOCH,MEAN_MOTION,ECCENTRICITY,INCLINATION,RA_OF_ASC_NODE,ARG_OF_PERICENTER,MEAN_ANOMALY,BSTAR,MEAN_MOTION_DOT,MEAN_MOTION_DDOT,TLE_LINE0,TLE_LINE1,TLE_LINE2,SEMIMAJOR_AXIS,PERIOD,APOGEE,PERIGEE,DECAYED
53621.0,STARLINK-4608,PAYLOAD,2023-04-27 11:41:35,15.08861804,0.000114,53.2147,255.151,127.6621,232.4474,0.00025452,3.768e-05,0.0,0 STARLINK-4608,1 53621U 22104AK  23117.48721746  .00003768  00000-0  25452-3 0  9994,2 53621  53.2147 255.1510 0001140 127.6621 232.4474 15.08861804 37547,6917.814,95.436,540.467,538.89,0.0
53621.0,STARLINK-4608,PAYLOAD,2023-04-27 19:38:31,15.08863025,0.0001052,53.2149,253.6644,124.5049,235.6043,0.00055407,8.547e-05,0.0,0 STARLINK-4608,1 53621U 22104AK  23117.81841502  .00008547  00000-0  55407-3 0  9997,2 53621  53.2149 253.6644 0001052 124.5049 235.6043 15.08863025 37029,6917.81,95.436,540.403,538.947,0.0
53621.0,STARLINK-4608,PAYLOAD,2023-04-28 02:00:04,15.08848183,0.0002049,53.2137,252.4749,85.8311,274.2915,-2.0379e-06,-3.21e-06,0.0,0 STARLINK-4608,1 53621U 22104AK  23118.08338032 -.00000321  00000-0 -20379-5 0  9992,2 53621  53.2137 252.4749 0002049  85.8311 274.2915 15.08848183 37066,6917.855,95.437,541.138,538.303,0.0
53621.0,STARLINK-4608,PAYLOAD,2023-04-28 11:32:22,15.08851843,0.0001315,53.2144,250.6903,94.0743,266.0399,0.00021338,3.111e-05,0.0,0 STARLINK-4608,1 53621U 22104AK  23118.48081449  .00003111  00000-0  21338-3 0  9995,2 53621  53.2144 250.6903 0001315  94.0743 266.0399 15.08851843 37693,6917.844,95.437,540.619,538.799,0.0
53621.0,STARLINK-4608,PAYLOAD,2023-04-29 12:58:32,15.08853394,9.8e-05,53.2147,245.9335,83.4187,276.6917,0.00049895,7.665e-05,0.0,0 STARLINK-4608,1 53621U 22104AK  23119.54065257  .00007665  00000-0  49895-3 0  9998,2 53621  53.2147 245.9335 0000980  83.4187 276.6917 15.08853394 37284,6917.839,95.437,540.382,539.027,0.0
53621.0,STARLINK-4608,PAYLOAD,2023-04-30 12:49:18,15.08848343,0.0001092,53.2153,241.4706,127.3665,232.7427,0.00019029,2.743e-05,0.0,0 STARLINK-4608,1 53621U 22104AK  23120.53424750  .00002743  00000-0  19029-3 0  9994,2 53621  53.2153 241.4706 0001092 127.3665 232.7427 15.08848343 38006,6917.855,95.437,540.475,538.964,0.0
53621.0,STARLINK-4608,PAYLOAD,2023-04-30 14:24:42,15.08847162,0.0001071,53.2145,241.1744,111.0968,249.0138,0.00012718,1.737e-05,0.0,0 STARLINK-4608,1 53621U 22104AK  23120.60048848  .00001737  00000-0  12718-3 0  9992,2 53621  53.2145 241.1744 0001071 111.0968 249.0138 15.08847162 37444,6917.858,95.437,540.464,538.983,0.0
53621.0,STARLINK-4608,PAYLOAD,2023-05-01 12:40:06,15.0883691,8.18e-05,53.2145,237.01,93.2546,266.854,0.0002863,4.271e-05,0.0,0 STARLINK-4608,1 53621U 22104AK  23121.52785383  .00004271  00000-0  28630-3 0  9992,2 53621  53.2145 237.0100 0000818  93.2546 266.8540 15.08836910 37583,6917.89,95.438,540.321,539.189,0.0
53621.0,STARLINK-4608,PAYLOAD,2023-05-01 17:26:16,15.08840713,7e-05,53.2146,236.1178,92.7128,267.3945,0.00072555,0.00011278,0.0,0 STARLINK-4608,1 53621U 22104AK  23121.72657525  .00011278  00000-0  72555-3 0  9990,2 53621  53.2146 236.1178 0000700  92.7128 267.3945 15.08840713 38187,6917.878,95.438,540.227,539.259,0.0
53621.0,STARLINK-4608,PAYLOAD,2023-05-02 12:30:53,15.08856128,8e-05,53.2146,232.5495,75.4105,284.6975,0.00084516,0.00013194,0.0,0 STARLINK-4608,1 53621U 22104AK  23122.52145305  .00013194  00000-0  84516-3 0  9996,2 53621  53.2146 232.5495 0000800  75.4105 284.6975 15.08856128 38309,6917.831,95.437,540.25,539.143,0.0
53621.0,STARLINK-4608,PAYLOAD,2023-05-02 17:17:02,15.08864322,8.12e-05,53.2149,231.6571,75.3912,284.717,0.0009459,0.00014808,0.0,0 STARLINK-4608,1 53621U 22104AK  23122.72016967  .00014808  00000-0  94590-3 0  9995,2 53621  53.2149 231.6571 0000812  75.3912 284.7170 15.08864322 37767,6917.806,95.436,540.233,539.109,0.0
53621.0,STARLINK-4608,PAYLOAD,2023-05-03 12:21:40,15.0884779,0.0001338,53.216,228.0837,144.3286,215.7796,0.00016337,2.314e-05,0.0,0 STARLINK-4608,1 53621U 22104AK  23123.51504763  .00002314  00000-0  16337-3 0  9991,2 53621  53.2160 228.0837 0001338 144.3286 215.7796 15.08847790 37881,6917.857,95.437,540.647,538.796,0.0
53621.0,STARLINK-4608,PAYLOAD,2023-05-03 13:57:03,15.08849547,7.87e-05,53.2154,227.7906,100.1117,259.9964,0.00026596,3.949e-05,0.0,0 STARLINK-4608,1 53621U 22104AK  23123.58128918  .00003949  00000-0  26596-3 0  9995,2 53621  53.2154 227.7906 0000787 100.1117 259.9964 15.08849547 38461,6917.851,95.437,540.261,539.172,0.0
53621.0,STARLINK-4608,PAYLOAD,2023-05-03 17:07:49,15.08851373,9.34e-05,53.2154,227.1973,65.44,294.6689,0.00046753,7.163e-05,0.0,0 STARLINK-4608,1 53621U 22104AK  23123.71376980  .00007163  00000-0  46753-3 0  9993,2 53621  53.2154 227.1973 0000934  65.4400 294.6689 15.08851373 38483,6917.846,95.437,540.357,539.064,0.0
53621.0,STARLINK-4608,PAYLOAD,2023-05-04 12:12:27,15.08841244,8.6e-05,53.2156,223.6276,80.6358,279.4731,5.4701e-07,-2.79e-06,0.0,0 STARLINK-4608,1 53621U 22104AK  23124.50865148 -.00000279  00000-0  54701-6 0  9997,2 53621  53.2156 223.6276 0000860  80.6358 279.4731 15.08841244 38037,6917.877,95.437,540.337,539.147,0.0
53621.0,STARLINK-4608,PAYLOAD,2023-05-04 16:58:36,15.08841659,8.04e-05,53.215,222.7364,93.9154,266.193,2.4867e-05,1.08e-06,0.0,0 STARLINK-4608,1 53621U 22104AK  23124.70737082  .00000108  00000-0  24867-4 0  9992,2 53621  53.2150 222.7364 0000804  93.9154 266.1930 15.08841659 38638,6917.875,95.437,540.297,539.184,0.0
53621.0,STARLINK-4608,PAYLOAD,2023-05-05 13:38:37,15.0883928,8.07e-05,53.2145,218.8725,88.3688,271.7397,1.7207e-05,-1.4e-07,0.0,0 STARLINK-4608,1 53621U 22104AK  23125.56849446 -.00000014  00000-0  17207-4 0  9992,2 53621  53.2145 218.8725 0000807  88.3688 271.7397 15.08839280 38199,6917.883,95.438,540.306,539.189,0.0
53621.0,STARLINK-4608,PAYLOAD,2023-05-05 15:14:01,15.08839129,8.12e-05,53.2145,218.5751,88.3334,271.7751,1.5395e-05,-4.3e-07,0.0,0 STARLINK-4608,1 53621U 22104AK  23125.63473460 -.00000043  00000-0  15395-4 0  9997,2 53621  53.2145 218.5751 0000812  88.3334 271.7751 15.08839129 38779,6917.883,95.438,540.31,539.186,0.0
53621.0,STARLINK-4608,PAYLOAD,2023-05-06 13:29:24,15.08845871,8.7e-05,53.2145,214.4123,87.0574,273.0517,0.00016358,2.317e-05,0.0,0 STARLINK-4608,1 53621U 22104AK  23126.56209438  .00002317  00000-0  16358-3 0  9996,2 53621  53.2145 214.4123 0000870  87.0574 273.0517 15.08845871 38915,6917.862,95.437,540.329,539.126,0.0
53621.0,STARLINK-4608,PAYLOAD,2023-05-06 23:01:43,15.08842535,0.0001092,53.2144,212.6293,57.5668,302.543,2.9778e-05,1.86e-06,0.0,0 STARLINK-4608,1 53621U 22104AK  23126.95953695  .00000186  00000-0  29778-4 0  9993,2 53621  53.2144 212.6293 0001092  57.5668 302.5430 15.08842535 38405,6917.873,95.437,540.493,538.982,0.0
53621.0,STARLINK-4608,PAYLOAD,2023-05-07 11:44:49,15.08831637,0.0001097,53.2143,210.249,70.5822,289.5289,2.208e-05,6.4e-07,0.0,0 STARLINK-4608,1 53621U 22104AK  23127.48946606  .00000064  00000-0  22080-4 0  9990,2 53621  53.2143 210.2490 0001097  70.5822 289.5289 15.08831637 38484,6917.906,95.438,540.53,539.012,0.0
53621.0,STARLINK-4608,PAYLOAD,2023-05-08 11:35:36,15.08843934,0.0001102,53.2142,205.7878,73.539,286.5723,0.00016564,2.35e-05,0.0,0 STARLINK-4608,1 53621U 22104AK  23128.48306294  .00002350  00000-0  16564-3 0  9993,2 53621  53.2142 205.7878 0001102  73.5390 286.5723 15.08843934 38632,6917.868,95.437,540.496,538.971,0.0
53621.0,STARLINK-4608,PAYLOAD,2023-05-09 11:26:23,15.08847903,9.98e-05,53.2145,201.3272,63.6901,296.4194,0.00024918,3.681e-05,0.0,0 STARLINK-4608,1 53621U 22104AK  23129.47666071  .00003681  00000-0  24918-3 0  9995,2 53621  53.2145 201.3272 0000998  63.6901 296.4194 15.08847903 39357,6917.856,95.437,540.412,539.031,0.0
53621.0,STARLINK-4608,PAYLOAD,2023-05-10 09:41:47,15.08840892,9.77e-05,53.2144,197.1643,70.9622,289.1476,5.5356e-05,5.93e-06,0.0,0 STARLINK-4608,1 53621U 22104AK  23130.40402393  .00000593  00000-0  55356-4 0  9995,2 53621  53.2144 197.1643 0000977  70.9622 289.1476 15.08840892 39495,6917.878,95.437,540.419,539.067,0.0
53621.0,STARLINK-4608,PAYLOAD,2023-05-10 20:49:29,15.08840802,0.0001037,53.2142,195.082,63.7087,296.4011,3.0006e-05,1.9e-06,0.0,0 STARLINK-4608,1 53621U 22104AK  23130.86770347  .00000190  00000-0  30006-4 0  9990,2 53621  53.2142 195.0820 0001037  63.7087 296.4011 15.08840802 39565,6917.878,95.438,540.46,539.026,0.0
53621.0,STARLINK-4608,PAYLOAD,2023-05-11 11:07:57,15.08846115,0.000107,53.2142,192.4069,71.5278,288.583,7.6819e-05,9.35e-06,0.0,0 STARLINK-4608,1 53621U 22104AK  23131.46385942  .00000935  00000-0  76819-4 0  9999,2 53621  53.2142 192.4069 0001070  71.5278 288.5830 15.08846115 39088,6917.862,95.437,540.467,538.986,0.0
53621.0,STARLINK-4608,PAYLOAD,2023-05-11 20:40:16,15.08841749,0.0001082,53.2137,190.6218,68.2557,291.8551,8.6311e-06,-1.5e-06,0.0,0 STARLINK-4608,1 53621U 22104AK  23131.86130101 -.00000150  00000-0  86311-5 0  9997,2 53621  53.2137 190.6218 0001082  68.2557 291.8551 15.08841749 39719,6917.875,95.437,540.489,538.992,0.0
53621.0,STARLINK-4608,PAYLOAD,2023-05-11 23:51:03,15.08835863,0.0001067,53.2141,190.0285,84.4166,275.6948,7.9835e-05,9.83e-06,0.0,0 STARLINK-4608,1 53621U 22104AK  23131.99378540  .00000983  00000-0  79835-4 0  9997,2 53621  53.2141 190.0285 0001067  84.4166 275.6948 15.08835863 39160,6917.893,95.438,540.496,539.02,0.0
53621.0,STARLINK-4608,PAYLOAD,2023-05-12 07:47:58,15.08835048,0.0001041,53.2142,188.5415,90.1155,269.9957,1.2317e-05,-9.2e-07,0.0,0 STARLINK-4608,1 53621U 22104AK  23132.32498635 -.00000092  00000-0  12317-4 0  9997,2 53621  53.2142 188.5415 0001041  90.1155 269.9957 15.08835048 39781,6917.896,95.438,540.481,539.04,0.0
53621.0,STARLINK-4608,PAYLOAD,2023-05-13 12:24:54,15.08840715,0.0001149,53.2155,183.1899,108.0503,252.0614,0.00020984,3.053e-05,0.0,0 STARLINK-4608,1 53621U 22104AK  23133.51730248  .00003053  00000-0  20984-3 0  9995,2 53621  53.2155 183.1899 0001149 108.0503 252.0614 15.08840715 39394,6917.878,95.438,540.538,538.948,0.0
